[{"OBJECT_NAME":"STARLINK-4348","OBJECT_ID":"2022-077AJ","EPOCH":"2026-03-09T22:21:05.166720","MEAN_MOTION":15.01565297,"ECCENTRICITY":0.00023714,"INCLINATION":97.6028,"RA_OF_ASC_NODE":250.4329,"ARG_OF_PERICENTER":150.6468,"MEAN_ANOMALY":209.489,"EPHEMERIS_TYPE":0,"CLASSIFICATION_TYPE":"U","NORAD_CAT_ID":53075,"ELEMENT_SET_NO":999,"REV_AT_EPOCH":20095,"BSTAR":0.0028947618,"MEAN_MOTION_DOT":0.00037622,"MEAN_MOTION_DDOT":0},{"OBJECT_NAME":"CZ-4C R\/B","OBJECT_ID":"2024-186B","EPOCH":"2026-03-09T22:51:12.491424","MEAN_MOTION":15.07425891,"ECCENTRICITY":0.00475116,"INCLINATION":97.8722,"RA_OF_ASC_NODE":96.5934,"ARG_OF_PERICENTER":122.4234,"MEAN_ANOMALY":238.1602,"EPHEMERIS_TYPE":0,"CLASSIFICATION_TYPE":"U","NORAD_CAT_ID":61572,"ELEMENT_SET_NO":999,"REV_AT_EPOCH":7672,"BSTAR":0.00027865777,"MEAN_MOTION_DOT":4.262e-5,"MEAN_MOTION_DDOT":0}]
